{
  "norad_id": 65032,
  "name": "STARLINK-34656",
  "history": [
    {
      "epoch": "2026-03-28T17:49:34.587552",
      "apogee_km": 476.0114139937714,
      "perigee_km": 474.34413957487595,
      "latitude_deg": -21.660226123161742,
      "longitude_deg": 34.50509728002362,
      "semi_major_axis_km": 6853.314776784324,
      "eccentricity": 0.00012164,
      "inclination_deg": 53.1581,
      "raan_deg": 205.937,
      "arg_perigee_deg": 67.3596,
      "mean_anomaly_deg": 292.7533,
      "mean_motion_rev_day": 15.3021249
    }
  ]
}